[{"OBJECT_NAME":"LAPAN-A3","OBJECT_ID":"2016-040E","EPOCH":"2026-03-09T23:01:57.724896","MEAN_MOTION":15.3238951,"ECCENTRICITY":0.00109839,"INCLINATION":97.1488,"RA_OF_ASC_NODE":68.4254,"ARG_OF_PERICENTER":22.062,"MEAN_ANOMALY":338.1093,"EPHEMERIS_TYPE":0,"CLASSIFICATION_TYPE":"U","NORAD_CAT_ID":41603,"ELEMENT_SET_NO":999,"REV_AT_EPOCH":53961,"BSTAR":0.00017567445,"MEAN_MOTION_DOT":5.428e-5,"MEAN_MOTION_DDOT":0},{"OBJECT_NAME":"STARLINK-32118","OBJECT_ID":"2024-132C","EPOCH":"2026-03-09T08:52:39.180288","MEAN_MOTION":15.30196864,"ECCENTRICITY":0.00012711,"INCLINATION":53.1609,"RA_OF_ASC_NODE":53.7564,"ARG_OF_PERICENTER":82.9335,"MEAN_ANOMALY":277.181,"EPHEMERIS_TYPE":0,"CLASSIFICATION_TYPE":"U","NORAD_CAT_ID":60280,"ELEMENT_SET_NO":999,"REV_AT_EPOCH":9151,"BSTAR":1.7584569e-5,"MEAN_MOTION_DOT":1.62e-6,"MEAN_MOTION_DDOT":0}]
